#aV2014  2 16  0  0  0.00000000     288 DD+AD WGS84 FIT  NGA
## 1780      0.00000000   300.00000000 56704 0.0000000000000
+   31     1  2  3  4  5  6  7  8  9 10 11 12 13 14 15 16 17
+         18 19 20 21 22 23 24 25 26 27 28 29 31 32  0  0  0
+          0  0  0  0  0  0  0  0  0  0  0  0  0  0  0  0  0
+          0  0  0  0  0  0  0  0  0  0  0  0  0  0  0  0  0
+          0  0  0  0  0  0  0  0  0  0  0  0  0  0  0  0  0
++         2  2  2  2  2  2  2  2  2  2  2  2  2  2  2  2  2
++         2  2  2  2  2  2  2  2  2  2  2  2  2  2  0  0  0
++         0  0  0  0  0  0  0  0  0  0  0  0  0  0  0  0  0
++         0  0  0  0  0  0  0  0  0  0  0  0  0  0  0  0  0
++         0  0  0  0  0  0  0  0  0  0  0  0  0  0  0  0  0
%c cc cc ccc ccc cccc cccc cccc cccc ccccc ccccc ccccc ccccc
%c cc cc ccc ccc cccc cccc cccc cccc ccccc ccccc ccccc ccccc
%f  0.0000000  0.000000000  0.00000000000  0.000000000000000
%f  0.0000000  0.000000000  0.00000000000  0.000000000000000
%i    0    0    0    0      0      0      0      0         0
%i    0    0    0    0      0      0      0      0         0
/*      NGA, ST. LOUIS,MO.                                  
/*   EPHEMERIS COMPUTED FROM  1 DAYS OF DATA                
/*   EPOCHA SMOOTHER                                       
/* CCCCCCCCCCCCCCCCCCCCCCCCCCCCCCCCCCCCCCCCCCCCCCCCCCCCCCCCC
*  2014  2 16 21 10  0.00000000
P  1 -21662.681864 -11344.599240  10486.671689     -0.424522                    
V  1  -7725.729807 -11109.634540 -27771.567344      0.021411                    
P  2  12897.861981  21671.419510   9365.122203    479.039777                    
V  2 -10119.375852  -5900.188455  27899.359864      0.021970                    
P  3 -11268.735385 -12159.799396 -21318.639043    326.684882                    
V  3  23474.928159 -10945.153197  -6162.120983      0.050181                    
P  4  -1886.329226  17839.519854  19204.165053      5.598760                    
V  4 -19181.021617 -16425.797504  13405.334465      0.002283                    
P  5   5062.684126  21673.628331 -14418.382518   -388.245096                    
V  5  -7050.880549  17106.943170  23463.230133      0.016144                    
P  6  -2318.475060 -15552.094894 -21323.868938    278.180459                    
V  6  25983.891094  -8380.762088   3683.301967      0.143896                    
P  7 -17282.552058   1724.022418 -20119.634165    314.643868                    
V  7 -17128.064944 -18996.688473  12726.868223      0.041799                    
P  8  -9307.135324  11163.566079 -22034.330112     11.969329                    
V  8 -17902.494023 -21921.615430  -4104.032755      0.001630                    
P  9  -7793.958023  13151.801197 -22234.795981    306.014629                    
V  9 -19285.598370 -18780.530101  -4612.597600      0.028054                    
P 10  -8650.985387  24727.059245   2292.282209   -114.593032                    
V 10  -2739.641007  -4249.396071  31433.051374     -0.015933                    
P 11 -23533.533056 -12565.662750   -669.630602   -464.882071                    
V 11   2449.382755  -4136.917736 -29970.192867     -0.032823                    
P 12  13114.289227   6891.793672  22007.570584    186.870704                    
V 12  -8265.592107  26728.376287  -3224.450981      0.023548                    
P 13 -26119.186249   5108.131818  -1332.114257     28.918277                    
V 13  -1834.496126  -1861.110304  31984.016050     -0.038457                    
P 14  16062.315317 -14140.030136  15851.695194    197.726046                    
V 14  19750.631958  -2017.258171 -22248.924329     -0.031232                    
P 15  19884.971236   6579.419678 -16547.757390   -163.508802                    
V 15 -19335.277992   8137.325310 -19771.194169     -0.020766                    
P 16  -3707.499945 -21248.700442 -15287.906577   -231.249471                    
V 16   7580.690146 -17981.799314  23544.216630      0.015372                    
P 17 -14483.541110  14985.208674  16578.438046    -68.873205                    
V 17 -20541.318591   2825.416245 -21041.394821     -0.033399                    
P 18  15790.835837 -13628.568641 -15818.295636    302.316752                    
V 18  -2449.720081  21180.010347 -20481.394939      0.021369                    
P 19 -18619.065996  -8821.143846 -17126.921498   -439.306116                    
V 19  20776.672335  -5003.530722 -19726.183193     -0.024260                    
P 20 -15360.088432  -3975.370369  21109.876000    162.328371                    
V 20   5499.997548 -26831.726851   -967.450032      0.033719                    
P 21  16918.783129  -3780.514182 -19631.206808   -344.358683                    
V 21  17878.836985  19271.767263  10871.756945     -0.021291                    
P 22  11002.220525 -23167.453310  -6390.866844    213.821428                    
V 22   1710.719236   9174.413001 -29556.764747      0.023263                    
P 23 -24646.976778  -1263.937137  10431.042537      3.376543                    
V 23  11972.086496  -5561.450767  27468.884987     -0.032286                    
P 24  21238.346770  14895.496240   5903.838615    -23.431178                    
V 24   3460.921523   7190.733089 -30442.586768     -0.006411                    
P 25  15850.214607  -7568.181964  19826.089922     14.871671                    
V 25  -5319.359267  24758.197327  13784.153382      0.018192                    
P 26   7923.646840  13757.428644 -21995.653010    163.118293                    
V 26 -25878.503559   4640.234126  -6315.059706     -0.108964                    
P 27  -5645.528475 -14164.371298 -21750.223456    -18.829294                    
V 27  26583.491406  -7451.335679  -2010.266220     -0.010586                    
P 28 -12986.960302  21200.226597  -8529.975475    333.061498                    
V 28   1671.612192 -11773.315728 -29847.999710      0.028123                    
P 29  26116.272468  -4331.722454   1893.690641    511.527767                    
V 29  -1745.969251   3045.849831  31829.555552      0.029579                    
P 31  -1441.325651 -19285.013857  18223.451675    333.286588                    
V 31  16770.132217  15633.397252  18332.779081      0.002914                    
P 32  -8340.545777 -16991.954894  18905.428882   -484.486931                    
V 32   9194.409682 -21909.241467 -15152.108987      0.064917                    
EOF
